ONEWEB-0349             
1 49281U 21090C   24195.59869500  .00000016  00000+0  65969-5 0  9995
2 49281  87.9191  54.4254 0001924  82.0242 278.1109 13.20772552136955
ONEWEB-0353             
1 49282U 21090D   24195.57790193  .00000168  00000+0  41945-3 0  9999
2 49282  87.8948  69.6842 0001969  72.7897 287.3448 13.14502664135143
ONEWEB-0356             
1 49283U 21090E   24195.59711697 -.00000033  00000+0 -11205-3 0  9993
2 49283  87.9192  54.4200 0002578  98.2533 261.8893 13.20770630136951
ONEWEB-0358             
1 49284U 21090F   24195.62709991  .00000031  00000+0  43481-4 0  9990
2 49284  87.9192  54.4009 0001878  93.2787 266.8561 13.20770441137685
ONEWEB-0359             
1 49285U 21090G   24195.62392738  .00000028  00000+0  36931-4 0  9996
2 49285  87.9191  54.4191 0001376  92.3641 267.7650 13.20768722137665
ONEWEB-0360             
1 49286U 21090H   24195.61447588  .00000036  00000+0  55653-4 0  9991
2 49286  87.9191  54.4261 0001711  84.6934 275.4395 13.20771711136973
ONEWEB-0361             
1 49287U 21090J   24195.59553815 -.00000085  00000+0 -23980-3 0  9993
2 49287  87.9192  54.4244 0001963  84.7304 275.4054 13.20771392137425
ONEWEB-0362             
1 49288U 21090K   24195.59737171  .00000019  00000+0  15262-4 0  9993
2 49288  87.9142  84.9919 0001638  68.4890 291.6418 13.19726525134119
